{
  "type": "FeatureCollection",
  "features": [
    {
      "type": "Feature",
      "properties": {
        "mobile_id": "MOB001",
        "point_count": 11
      },
      "geometry": {
        "type": "LineString",
        "coordinates": [
          [ -6.7906858, 37.4724282 ],
          [ -6.7906858, 37.4724282 ],
          [ -6.7906539, 37.4724773 ],
          [ -6.7906634, 37.4724822 ],
          [ -6.7906634, 37.4724822 ],
          [ -6.7906634, 37.4724822 ],
          [ -6.7906878, 37.4724337 ],
          [ -6.7906618, 37.4724845 ],
          [ -6.7906618, 37.4724845 ],
          [ -6.7906618, 37.4724845 ],
          [ -6.79101, 37.4725333333 ]
        ]
      }
    },
    {
      "type": "Feature",
      "properties": {
        "mobile_id": "865037047472218",
        "point_count": 1
      },
      "geometry": {
        "type": "Point",
        "coordinates": [ 16.5315942, 52.2259608 ]
      }
    }
  ]
}
